{
  "type": "FeatureCollection",
  "features": [
    {
      "type": "Feature",
      "properties": { "name": "France metropolitaine + Corse" },
      "geometry": {
        "type": "Polygon",
        "coordinates": [[[-5.6, 41.2], [9.8, 41.2], [9.8, 51.3], [-5.6, 51.3], [-5.6, 41.2]]]
      }
    },
    {
      "type": "Feature",
      "properties": { "name": "Maroc" },
      "geometry": {
        "type": "Polygon",
        "coordinates": [[[-17.3, 20.7], [-0.9, 20.7], [-0.9, 36.0], [-17.3, 36.0], [-17.3, 20.7]]]
      }
    },
    {
      "type": "Feature",
      "properties": { "name": "Arabie saoudite" },
      "geometry": {
        "type": "Polygon",
        "coordinates": [[[34.4, 16.2], [55.8, 16.2], [55.8, 32.3], [34.4, 32.3], [34.4, 16.2]]]
      }
    }
  ]
}
